CCSDS_OMM_VERS = 2.0
CREATION_DATE  = 
ORIGINATOR     = 

OBJECT_NAME    = ORBVIEW 2 (SEASTAR)
OBJECT_ID      = 1997-037A
CENTER_NAME    = EARTH
REF_FRAME      = TEME
TIME_SYSTEM    = UTC
MEAN_ELEMENT_THEORY = SGP/SGP4

EPOCH          = 2025-11-23T09:32:25.800576
MEAN_MOTION    = 14.35395818
ECCENTRICITY   = .0002605
INCLINATION    = 98.8453
RA_OF_ASC_NODE = 123.9864
ARG_OF_PERICENTER = 36.7812
MEAN_ANOMALY   = 323.3551

EPHEMERIS_TYPE = 0
CLASSIFICATION_TYPE = U
NORAD_CAT_ID   = 24883
ELEMENT_SET_NO = 999
REV_AT_EPOCH   = 49322
BSTAR          = .13105E-3
MEAN_MOTION_DOT = .33E-5
MEAN_MOTION_DDOT = 0

CCSDS_OMM_VERS = 2.0
CREATION_DATE  = 
ORIGINATOR     = 

OBJECT_NAME    = SL-16 R/B
OBJECT_ID      = 1998-043G
CENTER_NAME    = EARTH
REF_FRAME      = TEME
TIME_SYSTEM    = UTC
MEAN_ELEMENT_THEORY = SGP/SGP4

EPOCH          = 2025-11-23T18:48:34.773120
MEAN_MOTION    = 14.26018579
ECCENTRICITY   = .0009254
INCLINATION    = 98.8095
RA_OF_ASC_NODE = 275.4987
ARG_OF_PERICENTER = 327.6048
MEAN_ANOMALY   = 32.4562

EPHEMERIS_TYPE = 0
CLASSIFICATION_TYPE = U
NORAD_CAT_ID   = 25400
ELEMENT_SET_NO = 999
REV_AT_EPOCH   = 42389
BSTAR          = .53956E-4
MEAN_MOTION_DOT = .84E-6
MEAN_MOTION_DDOT = 0

CCSDS_OMM_VERS = 2.0
CREATION_DATE  = 
ORIGINATOR     = 

OBJECT_NAME    = SL-16 R/B
OBJECT_ID      = 1998-045B
CENTER_NAME    = EARTH
REF_FRAME      = TEME
TIME_SYSTEM    = UTC
MEAN_ELEMENT_THEORY = SGP/SGP4

EPOCH          = 2025-11-23T13:15:16.839072
MEAN_MOTION    = 14.16169460
ECCENTRICITY   = .0008103
INCLINATION    = 71.0124
RA_OF_ASC_NODE = 44.7766
ARG_OF_PERICENTER = 203.6538
MEAN_ANOMALY   = 156.4214

EPHEMERIS_TYPE = 0
CLASSIFICATION_TYPE = U
NORAD_CAT_ID   = 25407
ELEMENT_SET_NO = 999
REV_AT_EPOCH   = 41207
BSTAR          = .11832E-3
MEAN_MOTION_DOT = .187E-5
MEAN_MOTION_DDOT = 0

CCSDS_OMM_VERS = 2.0
CREATION_DATE  = 
ORIGINATOR     = 

OBJECT_NAME    = ISS (ZARYA)
OBJECT_ID      = 1998-067A
CENTER_NAME    = EARTH
REF_FRAME      = TEME
TIME_SYSTEM    = UTC
MEAN_ELEMENT_THEORY = SGP/SGP4

EPOCH          = 2025-11-23T06:06:23.877792
MEAN_MOTION    = 15.49011795
ECCENTRICITY   = .0003907
INCLINATION    = 51.6318
RA_OF_ASC_NODE = 238.9250
ARG_OF_PERICENTER = 158.5410
MEAN_ANOMALY   = 201.5743

EPHEMERIS_TYPE = 0
CLASSIFICATION_TYPE = U
NORAD_CAT_ID   = 25544
ELEMENT_SET_NO = 999
REV_AT_EPOCH   = 53983
BSTAR          = .2541E-3
MEAN_MOTION_DOT = .13581E-3
MEAN_MOTION_DDOT = 0

CCSDS_OMM_VERS = 2.0
CREATION_DATE  = 
ORIGINATOR     = 

OBJECT_NAME    = CZ-4B R/B
OBJECT_ID      = 1999-025C
CENTER_NAME    = EARTH
REF_FRAME      = TEME
TIME_SYSTEM    = UTC
MEAN_ELEMENT_THEORY = SGP/SGP4

EPOCH          = 2025-11-23T18:45:36.858240
MEAN_MOTION    = 14.18236711
ECCENTRICITY   = .0036046
INCLINATION    = 98.6796
RA_OF_ASC_NODE = 9.4834
ARG_OF_PERICENTER = 290.0515
MEAN_ANOMALY   = 183.8606

EPHEMERIS_TYPE = 0
CLASSIFICATION_TYPE = U
NORAD_CAT_ID   = 25732
ELEMENT_SET_NO = 999
REV_AT_EPOCH   = 37315
BSTAR          = .57771E-4
MEAN_MOTION_DOT = .76E-6
MEAN_MOTION_DDOT = 0

CCSDS_OMM_VERS = 2.0
CREATION_DATE  = 
ORIGINATOR     = 

OBJECT_NAME    = OKEAN-O
OBJECT_ID      = 1999-039A
CENTER_NAME    = EARTH
REF_FRAME      = TEME
TIME_SYSTEM    = UTC
MEAN_ELEMENT_THEORY = SGP/SGP4

EPOCH          = 2025-11-23T17:24:58.987008
MEAN_MOTION    = 14.80113243
ECCENTRICITY   = .0001111
INCLINATION    = 97.9628
RA_OF_ASC_NODE = 23.5898
ARG_OF_PERICENTER = 69.1121
MEAN_ANOMALY   = 291.0210

EPHEMERIS_TYPE = 0
CLASSIFICATION_TYPE = U
NORAD_CAT_ID   = 25860
ELEMENT_SET_NO = 999
REV_AT_EPOCH   = 41871
BSTAR          = .10247E-3
MEAN_MOTION_DOT = .725E-5
MEAN_MOTION_DDOT = 0

CCSDS_OMM_VERS = 2.0
CREATION_DATE  = 
ORIGINATOR     = 

OBJECT_NAME    = SL-16 R/B
OBJECT_ID      = 1999-039B
CENTER_NAME    = EARTH
REF_FRAME      = TEME
TIME_SYSTEM    = UTC
MEAN_ELEMENT_THEORY = SGP/SGP4

EPOCH          = 2025-11-23T17:44:16.340928
MEAN_MOTION    = 14.81545666
ECCENTRICITY   = .0013662
INCLINATION    = 98.0150
RA_OF_ASC_NODE = 21.8867
ARG_OF_PERICENTER = 238.5121
MEAN_ANOMALY   = 121.4757

EPHEMERIS_TYPE = 0
CLASSIFICATION_TYPE = U
NORAD_CAT_ID   = 25861
ELEMENT_SET_NO = 999
REV_AT_EPOCH   = 42117
BSTAR          = .91536E-4
MEAN_MOTION_DOT = .665E-5
MEAN_MOTION_DDOT = 0

CCSDS_OMM_VERS = 2.0
CREATION_DATE  = 
ORIGINATOR     = 

OBJECT_NAME    = DELTA 2 R/B
OBJECT_ID      = 1999-041E
CENTER_NAME    = EARTH
REF_FRAME      = TEME
TIME_SYSTEM    = UTC
MEAN_ELEMENT_THEORY = SGP/SGP4

EPOCH          = 2025-11-23T15:57:02.729088
MEAN_MOTION    = 14.11330532
ECCENTRICITY   = .0504898
INCLINATION    = 51.7628
RA_OF_ASC_NODE = 4.5877
ARG_OF_PERICENTER = 35.5571
MEAN_ANOMALY   = 327.7928

EPHEMERIS_TYPE = 0
CLASSIFICATION_TYPE = U
NORAD_CAT_ID   = 25876
ELEMENT_SET_NO = 999
REV_AT_EPOCH   = 34805
BSTAR          = .17941E-3
MEAN_MOTION_DOT = .867E-5
MEAN_MOTION_DDOT = 0

CCSDS_OMM_VERS = 2.0
CREATION_DATE  = 
ORIGINATOR     = 

OBJECT_NAME    = HELIOS 1B
OBJECT_ID      = 1999-064A
CENTER_NAME    = EARTH
REF_FRAME      = TEME
TIME_SYSTEM    = UTC
MEAN_ELEMENT_THEORY = SGP/SGP4

EPOCH          = 2025-11-23T16:42:00.854208
MEAN_MOTION    = 14.87166174
ECCENTRICITY   = .0002458
INCLINATION    = 98.1752
RA_OF_ASC_NODE = 221.7981
ARG_OF_PERICENTER = 68.9815
MEAN_ANOMALY   = 291.1663

EPHEMERIS_TYPE = 0
CLASSIFICATION_TYPE = U
NORAD_CAT_ID   = 25977
ELEMENT_SET_NO = 999
REV_AT_EPOCH   = 66950
BSTAR          = .18021E-3
MEAN_MOTION_DOT = .1562E-4
MEAN_MOTION_DDOT = 0

CCSDS_OMM_VERS = 2.0
CREATION_DATE  = 
ORIGINATOR     = 

OBJECT_NAME    = TERRA
OBJECT_ID      = 1999-068A
CENTER_NAME    = EARTH
REF_FRAME      = TEME
TIME_SYSTEM    = UTC
MEAN_ELEMENT_THEORY = SGP/SGP4

EPOCH          = 2025-11-23T18:32:45.230208
MEAN_MOTION    = 14.60920269
ECCENTRICITY   = .0003044
INCLINATION    = 97.9773
RA_OF_ASC_NODE = 20.1501
ARG_OF_PERICENTER = 136.6030
MEAN_ANOMALY   = 339.8780

EPHEMERIS_TYPE = 0
CLASSIFICATION_TYPE = U
NORAD_CAT_ID   = 25994
ELEMENT_SET_NO = 999
REV_AT_EPOCH   = 37961
BSTAR          = .11573E-3
MEAN_MOTION_DOT = .522E-5
MEAN_MOTION_DDOT = 0

CCSDS_OMM_VERS = 2.0
CREATION_DATE  = 
ORIGINATOR     = 

OBJECT_NAME    = SL-16 R/B
OBJECT_ID      = 2000-006B
CENTER_NAME    = EARTH
REF_FRAME      = TEME
TIME_SYSTEM    = UTC
MEAN_ELEMENT_THEORY = SGP/SGP4

EPOCH          = 2025-11-23T09:34:22.444032
MEAN_MOTION    = 14.15801321
ECCENTRICITY   = .0017397
INCLINATION    = 71.0018
RA_OF_ASC_NODE = 321.3249
ARG_OF_PERICENTER = 335.8241
MEAN_ANOMALY   = 24.2064

EPHEMERIS_TYPE = 0
CLASSIFICATION_TYPE = U
NORAD_CAT_ID   = 26070
ELEMENT_SET_NO = 999
REV_AT_EPOCH   = 33351
BSTAR          = .40526E-4
MEAN_MOTION_DOT = .32E-6
MEAN_MOTION_DDOT = 0

CCSDS_OMM_VERS = 2.0
CREATION_DATE  = 
ORIGINATOR     = 

OBJECT_NAME    = TITAN 4B R/B
OBJECT_ID      = 2000-047B
CENTER_NAME    = EARTH
REF_FRAME      = TEME
TIME_SYSTEM    = UTC
MEAN_ELEMENT_THEORY = SGP/SGP4

EPOCH          = 2025-11-23T15:35:11.817312
MEAN_MOTION    = 15.08580232
ECCENTRICITY   = .0040611
INCLINATION    = 67.9901
RA_OF_ASC_NODE = 338.4626
ARG_OF_PERICENTER = 167.2604
MEAN_ANOMALY   = 192.9581

EPHEMERIS_TYPE = 0
CLASSIFICATION_TYPE = U
NORAD_CAT_ID   = 26474
ELEMENT_SET_NO = 999
REV_AT_EPOCH   = 37691
BSTAR          = .20527E-3
MEAN_MOTION_DOT = .3141E-4
MEAN_MOTION_DDOT = 0

