ORBVIEW 2 (SEASTAR)     
1 24883U 97037A   25327.39752084  .00000330  00000+0  13105-3 0  9996
2 24883  98.8453 123.9864 0002605  36.7812 323.3551 14.35395818493226
SL-16 R/B               
1 25400U 98043G   25327.78373580  .00000084  00000+0  53956-4 0  9998
2 25400  98.8095 275.4987 0009254 327.6048  32.4562 14.26018579423895
SL-16 R/B               
1 25407U 98045B   25327.55227823  .00000187  00000+0  11832-3 0  9990
2 25407  71.0124  44.7766 0008103 203.6538 156.4214 14.16169460412073
ISS (ZARYA)             
1 25544U 98067A   25327.25444303  .00013581  00000+0  25410-3 0  9996
2 25544  51.6318 238.9250 0003907 158.5410 201.5743 15.49011795539830
CZ-4B R/B               
1 25732U 99025C   25327.78167660  .00000076  00000+0  57771-4 0  9997
2 25732  98.6796   9.4834 0036046 290.0515 183.8606 14.18236711373150
OKEAN-O                 
1 25860U 99039A   25327.72568272  .00000725  00000+0  10247-3 0  9999
2 25860  97.9628  23.5898 0001111  69.1121 291.0210 14.80113243418716
SL-16 R/B               
1 25861U 99039B   25327.73907802  .00000665  00000+0  91536-4 0  9991
2 25861  98.0150  21.8867 0013662 238.5121 121.4757 14.81545666421177
DELTA 2 R/B             
1 25876U 99041E   25327.66461492  .00000867  00000+0  17941-3 0  9993
2 25876  51.7628   4.5877 0504898  35.5571 327.7928 14.11330532348051
HELIOS 1B               
1 25977U 99064A   25327.69584322  .00001562  00000+0  18021-3 0  9994
2 25977  98.1752 221.7981 0002458  68.9815 291.1663 14.87166174669509
TERRA                   
1 25994U 99068A   25327.77274572  .00000522  00000+0  11573-3 0  9999
2 25994  97.9773  20.1501 0003044 136.6030 339.8780 14.60920269379615
SL-16 R/B               
1 26070U 00006B   25327.39887088  .00000032  00000+0  40526-4 0  9996
2 26070  71.0018 321.3249 0017397 335.8241  24.2064 14.15801321333510
TITAN 4B R/B            
1 26474U 00047B   25327.64944233  .00003141  00000+0  20527-3 0  9995
2 26474  67.9901 338.4626 0040611 167.2604 192.9581 15.08580232376912
